KUIPER-00500            
1 68882U 26095U   26188.28929653  .00000229  00000+0  59063-4 0  9992
2 68882  51.8992 161.7628 0001212 331.1378  28.9517 14.79925149 10599
KUIPER-00502            
1 68883U 26095V   26188.47837157  .00023464  00000+0  61897-3 0  9994
2 68883  51.8788 144.0672 0006530  28.1602 331.9737 15.38351813 10854
KUIPER-00503            
1 68884U 26095W   26188.32572285  .00002340  00000+0  33567-3 0  9990
2 68884  51.8968 159.0981 0000584  80.9397 279.1631 14.79957456 10635
KUIPER-00504            
1 68885U 26095X   26188.35144545  .00001629  00000+0  24267-3 0  9994
2 68885  51.9003 166.4900 0000516  60.8104 299.2910 14.79928022 10537
KUIPER-00505            
1 68886U 26095Y   26188.26091966 -.00003700  00000+0 -45680-3 0  9999
2 68886  51.8994 156.8933 0000419 169.7634 190.3337 14.79917437 10659
KUIPER-00507            
1 68887U 26095Z   26188.41672454 -.00060953  00000+0 -49782-2 0  9993
2 68887  51.8950 146.7987 0001639 107.4411 112.4500 14.99149923  4228
KUIPER-00511            
1 68888U 26095AA  26188.41672454 -.00735880  00000+0 -23553-1 0  9999
2 68888  51.8773 144.5174 0006287  22.2448 267.5277 15.34435075  5718
KUIPER-00512            
1 68889U 26095AB  26188.29199975  .00001848  00000+0  27137-3 0  9990
2 68889  51.8995 159.2555 0000687  94.2345 265.8695 14.79929989 10625
KUIPER-00519            
1 68890U 26095AC  26188.41672454 -.00020460  00000+0 -23182-2 0  9992
2 68890  51.8989 148.8877 0004566  88.3626 101.7736 14.85647033  5629
KUIPER-00521            
1 68891U 26095AD  26188.41672454  .00012085  00000+0  62431-3 0  9996
2 68891  51.8884 144.9076 0000239 108.3384   1.2998 15.16663548  6000
KUIPER-00524            
1 68892U 26095AE  26188.41672454 -.00033750  00000+0 -42384-2 0  9995
2 68892  51.8976 149.8998 0000975 226.4926 171.1229 14.81686194  5399
KUIPER-00370            
1 68919U 26098A   26188.50384802 -.00154648  00000+0 -58031-2 0  9991
2 68919  51.8743 332.3348 0015178 229.7300 130.2356 15.27201406 10430
KUIPER-00380            
1 68920U 26098B   26188.39287093  .00013309  00000+0  46651-3 0  9996
2 68920  51.8774 331.6327 0007365 229.4155 130.6188 15.29746083 10433
KUIPER-00386            
1 68921U 26098C   26188.43675779  .00018965  00000+0  52850-3 0  9995
2 68921  51.8756 329.7178 0002308 275.1796  84.8927 15.36802807 10466
KUIPER-00388            
1 68922U 26098D   26188.41672454 -.00191541  00000+0 -16134-1 0  9998
2 68922  51.8893 334.1894 0018451 221.3651 329.6462 14.98628278  4960
KUIPER-00405            
1 68923U 26098E   26188.41672454  .00000714  00000+0  63219-4 0  9997
2 68923  51.8861 332.9369 0011274 242.0285 233.1135 15.08802804  3593
