{"fetched_at":"2026-07-07T18:29:04.699Z","source":"https://celestrak.org/NORAD/elements/gp.php?GROUP=kuiper&FORMAT=JSON","constellation":"kuiper","records":[{"OBJECT_NAME":"KUIPER-00500","OBJECT_ID":"2026-095U","EPOCH":"2026-07-07T06:56:35.220192","CLASSIFICATION_TYPE":"U","MEAN_MOTION":14.79925149,"ECCENTRICITY":0.0001212,"INCLINATION":51.8992,"RA_OF_ASC_NODE":161.7628,"ARG_OF_PERICENTER":331.1378,"MEAN_ANOMALY":28.9517,"EPHEMERIS_TYPE":0,"NORAD_CAT_ID":68882,"ELEMENT_SET_NO":999,"REV_AT_EPOCH":1059,"BSTAR":0.000059063,"MEAN_MOTION_DOT":0.00000229,"MEAN_MOTION_DDOT":0},{"OBJECT_NAME":"KUIPER-00502","OBJECT_ID":"2026-095V","EPOCH":"2026-07-07T11:28:51.303648","CLASSIFICATION_TYPE":"U","MEAN_MOTION":15.38351813,"ECCENTRICITY":0.000653,"INCLINATION":51.8788,"RA_OF_ASC_NODE":144.0672,"ARG_OF_PERICENTER":28.1602,"MEAN_ANOMALY":331.9737,"EPHEMERIS_TYPE":0,"NORAD_CAT_ID":68883,"ELEMENT_SET_NO":999,"REV_AT_EPOCH":1085,"BSTAR":0.00061897,"MEAN_MOTION_DOT":0.00023464,"MEAN_MOTION_DDOT":0},{"OBJECT_NAME":"KUIPER-00503","OBJECT_ID":"2026-095W","EPOCH":"2026-07-07T07:49:02.454240","CLASSIFICATION_TYPE":"U","MEAN_MOTION":14.79957456,"ECCENTRICITY":0.0000584,"INCLINATION":51.8968,"RA_OF_ASC_NODE":159.0981,"ARG_OF_PERICENTER":80.9397,"MEAN_ANOMALY":279.1631,"EPHEMERIS_TYPE":0,"NORAD_CAT_ID":68884,"ELEMENT_SET_NO":999,"REV_AT_EPOCH":1063,"BSTAR":0.00033567,"MEAN_MOTION_DOT":0.0000234,"MEAN_MOTION_DDOT":0},{"OBJECT_NAME":"KUIPER-00504","OBJECT_ID":"2026-095X","EPOCH":"2026-07-07T08:26:04.886880","CLASSIFICATION_TYPE":"U","MEAN_MOTION":14.79928022,"ECCENTRICITY":0.0000516,"INCLINATION":51.9003,"RA_OF_ASC_NODE":166.49,"ARG_OF_PERICENTER":60.8104,"MEAN_ANOMALY":299.291,"EPHEMERIS_TYPE":0,"NORAD_CAT_ID":68885,"ELEMENT_SET_NO":999,"REV_AT_EPOCH":1053,"BSTAR":0.00024267,"MEAN_MOTION_DOT":0.00001629,"MEAN_MOTION_DDOT":0},{"OBJECT_NAME":"KUIPER-00505","OBJECT_ID":"2026-095Y","EPOCH":"2026-07-07T06:15:43.458624","CLASSIFICATION_TYPE":"U","MEAN_MOTION":14.79917437,"ECCENTRICITY":0.0000419,"INCLINATION":51.8994,"RA_OF_ASC_NODE":156.8933,"ARG_OF_PERICENTER":169.7634,"MEAN_ANOMALY":190.3337,"EPHEMERIS_TYPE":0,"NORAD_CAT_ID":68886,"ELEMENT_SET_NO":999,"REV_AT_EPOCH":1065,"BSTAR":-0.0004568,"MEAN_MOTION_DOT":-0.000037,"MEAN_MOTION_DDOT":0},{"OBJECT_NAME":"KUIPER-00507","OBJECT_ID":"2026-095Z","EPOCH":"2026-07-07T10:00:05.000256","CLASSIFICATION_TYPE":"U","MEAN_MOTION":14.99149923,"ECCENTRICITY":0.0001639,"INCLINATION":51.895,"RA_OF_ASC_NODE":146.7987,"ARG_OF_PERICENTER":107.4411,"MEAN_ANOMALY":112.45,"EPHEMERIS_TYPE":0,"NORAD_CAT_ID":68887,"ELEMENT_SET_NO":999,"REV_AT_EPOCH":422,"BSTAR":-0.0049782,"MEAN_MOTION_DOT":-0.00060953,"MEAN_MOTION_DDOT":0},{"OBJECT_NAME":"KUIPER-00511","OBJECT_ID":"2026-095AA","EPOCH":"2026-07-07T10:00:05.000256","CLASSIFICATION_TYPE":"U","MEAN_MOTION":15.34435075,"ECCENTRICITY":0.0006287,"INCLINATION":51.8773,"RA_OF_ASC_NODE":144.5174,"ARG_OF_PERICENTER":22.2448,"MEAN_ANOMALY":267.5277,"EPHEMERIS_TYPE":0,"NORAD_CAT_ID":68888,"ELEMENT_SET_NO":999,"REV_AT_EPOCH":571,"BSTAR":-0.023553,"MEAN_MOTION_DOT":-0.0073588,"MEAN_MOTION_DDOT":0},{"OBJECT_NAME":"KUIPER-00512","OBJECT_ID":"2026-095AB","EPOCH":"2026-07-07T07:00:28.778400","CLASSIFICATION_TYPE":"U","MEAN_MOTION":14.79929989,"ECCENTRICITY":0.0000687,"INCLINATION":51.8995,"RA_OF_ASC_NODE":159.2555,"ARG_OF_PERICENTER":94.2345,"MEAN_ANOMALY":265.8695,"EPHEMERIS_TYPE":0,"NORAD_CAT_ID":68889,"ELEMENT_SET_NO":999,"REV_AT_EPOCH":1062,"BSTAR":0.00027137,"MEAN_MOTION_DOT":0.00001848,"MEAN_MOTION_DDOT":0},{"OBJECT_NAME":"KUIPER-00519","OBJECT_ID":"2026-095AC","EPOCH":"2026-07-07T10:00:05.000256","CLASSIFICATION_TYPE":"U","MEAN_MOTION":14.85647033,"ECCENTRICITY":0.0004566,"INCLINATION":51.8989,"RA_OF_ASC_NODE":148.8877,"ARG_OF_PERICENTER":88.3626,"MEAN_ANOMALY":101.7736,"EPHEMERIS_TYPE":0,"NORAD_CAT_ID":68890,"ELEMENT_SET_NO":999,"REV_AT_EPOCH":562,"BSTAR":-0.0023182,"MEAN_MOTION_DOT":-0.0002046,"MEAN_MOTION_DDOT":0},{"OBJECT_NAME":"KUIPER-00521","OBJECT_ID":"2026-095AD","EPOCH":"2026-07-07T10:00:05.000256","CLASSIFICATION_TYPE":"U","MEAN_MOTION":15.16663548,"ECCENTRICITY":0.0000239,"INCLINATION":51.8884,"RA_OF_ASC_NODE":144.9076,"ARG_OF_PERICENTER":108.3384,"MEAN_ANOMALY":1.2998,"EPHEMERIS_TYPE":0,"NORAD_CAT_ID":68891,"ELEMENT_SET_NO":999,"REV_AT_EPOCH":600,"BSTAR":0.00062431,"MEAN_MOTION_DOT":0.00012085,"MEAN_MOTION_DDOT":0},{"OBJECT_NAME":"KUIPER-00524","OBJECT_ID":"2026-095AE","EPOCH":"2026-07-07T10:00:05.000256","CLASSIFICATION_TYPE":"U","MEAN_MOTION":14.81686194,"ECCENTRICITY":0.0000975,"INCLINATION":51.8976,"RA_OF_ASC_NODE":149.8998,"ARG_OF_PERICENTER":226.4926,"MEAN_ANOMALY":171.1229,"EPHEMERIS_TYPE":0,"NORAD_CAT_ID":68892,"ELEMENT_SET_NO":999,"REV_AT_EPOCH":539,"BSTAR":-0.0042384,"MEAN_MOTION_DOT":-0.0003375,"MEAN_MOTION_DDOT":0},{"OBJECT_NAME":"KUIPER-00370","OBJECT_ID":"2026-098A","EPOCH":"2026-07-07T12:05:32.468928","CLASSIFICATION_TYPE":"U","MEAN_MOTION":15.27201406,"ECCENTRICITY":0.0015178,"INCLINATION":51.8743,"RA_OF_ASC_NODE":332.3348,"ARG_OF_PERICENTER":229.73,"MEAN_ANOMALY":130.2356,"EPHEMERIS_TYPE":0,"NORAD_CAT_ID":68919,"ELEMENT_SET_NO":999,"REV_AT_EPOCH":1043,"BSTAR":-0.0058031,"MEAN_MOTION_DOT":-0.00154648,"MEAN_MOTION_DDOT":0},{"OBJECT_NAME":"KUIPER-00380","OBJECT_ID":"2026-098B","EPOCH":"2026-07-07T09:25:44.048352","CLASSIFICATION_TYPE":"U","MEAN_MOTION":15.29746083,"ECCENTRICITY":0.0007365,"INCLINATION":51.8774,"RA_OF_ASC_NODE":331.6327,"ARG_OF_PERICENTER":229.4155,"MEAN_ANOMALY":130.6188,"EPHEMERIS_TYPE":0,"NORAD_CAT_ID":68920,"ELEMENT_SET_NO":999,"REV_AT_EPOCH":1043,"BSTAR":0.00046651,"MEAN_MOTION_DOT":0.00013309,"MEAN_MOTION_DDOT":0},{"OBJECT_NAME":"KUIPER-00386","OBJECT_ID":"2026-098C","EPOCH":"2026-07-07T10:28:55.873056","CLASSIFICATION_TYPE":"U","MEAN_MOTION":15.36802807,"ECCENTRICITY":0.0002308,"INCLINATION":51.8756,"RA_OF_ASC_NODE":329.7178,"ARG_OF_PERICENTER":275.1796,"MEAN_ANOMALY":84.8927,"EPHEMERIS_TYPE":0,"NORAD_CAT_ID":68921,"ELEMENT_SET_NO":999,"REV_AT_EPOCH":1046,"BSTAR":0.0005285,"MEAN_MOTION_DOT":0.00018965,"MEAN_MOTION_DDOT":0},{"OBJECT_NAME":"KUIPER-00388","OBJECT_ID":"2026-098D","EPOCH":"2026-07-07T10:00:05.000256","CLASSIFICATION_TYPE":"U","MEAN_MOTION":14.98628278,"ECCENTRICITY":0.0018451,"INCLINATION":51.8893,"RA_OF_ASC_NODE":334.1894,"ARG_OF_PERICENTER":221.3651,"MEAN_ANOMALY":329.6462,"EPHEMERIS_TYPE":0,"NORAD_CAT_ID":68922,"ELEMENT_SET_NO":999,"REV_AT_EPOCH":496,"BSTAR":-0.016134,"MEAN_MOTION_DOT":-0.00191541,"MEAN_MOTION_DDOT":0},{"OBJECT_NAME":"KUIPER-00405","OBJECT_ID":"2026-098E","EPOCH":"2026-07-07T10:00:05.000256","CLASSIFICATION_TYPE":"U","MEAN_MOTION":15.08802804,"ECCENTRICITY":0.0011274,"INCLINATION":51.8861,"RA_OF_ASC_NODE":332.9369,"ARG_OF_PERICENTER":242.0285,"MEAN_ANOMALY":233.1135,"EPHEMERIS_TYPE":0,"NORAD_CAT_ID":68923,"ELEMENT_SET_NO":999,"REV_AT_EPOCH":359,"BSTAR":0.000063219,"MEAN_MOTION_DOT":0.00000714,"MEAN_MOTION_DDOT":0}]}
